[{"OBJECT_NAME":"STARLINK-32828","OBJECT_ID":"2025-034S","EPOCH":"2026-03-09T22:25:56.941248","MEAN_MOTION":15.30200145,"ECCENTRICITY":5.229e-5,"INCLINATION":53.1583,"RA_OF_ASC_NODE":269.8138,"ARG_OF_PERICENTER":95.233,"MEAN_ANOMALY":264.8731,"EPHEMERIS_TYPE":0,"CLASSIFICATION_TYPE":"U","NORAD_CAT_ID":63045,"ELEMENT_SET_NO":999,"REV_AT_EPOCH":5894,"BSTAR":0.00085028242,"MEAN_MOTION_DOT":0.00024908,"MEAN_MOTION_DDOT":0},{"OBJECT_NAME":"GEOSCAN 3 (RS92S3)","OBJECT_ID":"2025-155T","EPOCH":"2026-03-09T22:52:10.587648","MEAN_MOTION":15.31696739,"ECCENTRICITY":0.00068078,"INCLINATION":97.4455,"RA_OF_ASC_NODE":37.9971,"ARG_OF_PERICENTER":154.1387,"MEAN_ANOMALY":206.0196,"EPHEMERIS_TYPE":0,"CLASSIFICATION_TYPE":"U","NORAD_CAT_ID":64893,"ELEMENT_SET_NO":999,"REV_AT_EPOCH":6564,"BSTAR":0.00078414081,"MEAN_MOTION_DOT":0.00023985,"MEAN_MOTION_DDOT":0}]
